{
  "type": "FeatureCollection",
  "features": [
    {
      "type": "Feature",
      "properties": {
        "norad_id": 30858,
        "name": "FENGYUN 1C DEB",
        "group": "fengyun-1c-debris",
        "lat": -18.611708284109838,
        "lon": -145.5875428767798,
        "alt_km": 830.0480435033251,
        "timestamp": "2025-12-05T16:54:14.926957+00:00",
        "meta_object_name": "FENGYUN 1C DEB",
        "meta_object_id": "1999-025AWU",
        "meta_epoch": "2025-12-04T19:57:43.956000",
        "meta_mean_motion": 14.17761896,
        "meta_eccentricity": 0.00308144,
        "meta_inclination": 98.8002,
        "meta_ra_of_asc_node": 36.5385,
        "meta_arg_of_pericenter": 131.7741,
        "meta_mean_anomaly": 295.5144,
        "meta_ephemeris_type": 0,
        "meta_classification_type": "U",
        "meta_norad_cat_id": 30858,
        "meta_element_set_no": 999,
        "meta_rev_at_epoch": 96868,
        "meta_bstar": 0.00068492497,
        "meta_mean_motion_dot": 1.359e-05,
        "meta_mean_motion_ddot": 0,
        "tle_line1": "1 30858U 99025AWU 25338.83175875  .00001359  00000+0  68492-3 0  9993",
        "tle_line2": "2 30858  98.8002  36.5385 0030814 131.7741 295.5144 14.17761896968680"
      },
      "geometry": {
        "type": "Point",
        "coordinates": [
          -145.5875428767798,
          -18.611708284109838
        ]
      }
    },
    {
      "type": "Feature",
      "properties": {
        "norad_id": 30859,
        "name": "FENGYUN 1C DEB",
        "group": "fengyun-1c-debris",
        "lat": -27.347111666661036,
        "lon": -155.23157177804268,
        "alt_km": 755.4419806290307,
        "timestamp": "2025-12-05T16:54:14.926966+00:00",
        "meta_object_name": "FENGYUN 1C DEB",
        "meta_object_id": "1999-025AWV",
        "meta_epoch": "2025-12-05T06:00:22.514976",
        "meta_mean_motion": 14.48832173,
        "meta_eccentricity": 0.00315783,
        "meta_inclination": 98.9217,
        "meta_ra_of_asc_node": 28.9488,
        "meta_arg_of_pericenter": 54.1224,
        "meta_mean_anomaly": 306.2892,
        "meta_ephemeris_type": 0,
        "meta_classification_type": "U",
        "meta_norad_cat_id": 30859,
        "meta_element_set_no": 999,
        "meta_rev_at_epoch": 96926,
        "meta_bstar": 0.0051716545,
        "meta_mean_motion_dot": 0.00019672,
        "meta_mean_motion_ddot": 0,
        "tle_line1": "1 30859U 99025AWV 25339.25026059  .00019672  00000+0  51717-2 0  9998",
        "tle_line2": "2 30859  98.9217  28.9488 0031578  54.1224 306.2892 14.48832173969267"
      },
      "geometry": {
        "type": "Point",
        "coordinates": [
          -155.23157177804268,
          -27.347111666661036
        ]
      }
    },
    {
      "type": "Feature",
      "properties": {
        "norad_id": 30860,
        "name": "FENGYUN 1C DEB",
        "group": "fengyun-1c-debris",
        "lat": -61.81335992291186,
        "lon": 70.07037974785803,
        "alt_km": 814.1362243739268,
        "timestamp": "2025-12-05T16:54:14.926976+00:00",
        "meta_object_name": "FENGYUN 1C DEB",
        "meta_object_id": "1999-025AWW",
        "meta_epoch": "2025-12-05T03:43:25.260672",
        "meta_mean_motion": 14.25406923,
        "meta_eccentricity": 0.00399903,
        "meta_inclination": 98.906,
        "meta_ra_of_asc_node": 52.4992,
        "meta_arg_of_pericenter": 208.4466,
        "meta_mean_anomaly": 151.4531,
        "meta_ephemeris_type": 0,
        "meta_classification_type": "U",
        "meta_norad_cat_id": 30860,
        "meta_element_set_no": 999,
        "meta_rev_at_epoch": 96408,
        "meta_bstar": 0.0036731143,
        "meta_mean_motion_dot": 8.702e-05,
        "meta_mean_motion_ddot": 0,
        "tle_line1": "1 30860U 99025AWW 25339.15515348  .00008702  00000+0  36731-2 0  9994",
        "tle_line2": "2 30860  98.9060  52.4992 0039990 208.4466 151.4531 14.25406923964085"
      },
      "geometry": {
        "type": "Point",
        "coordinates": [
          70.07037974785803,
          -61.81335992291186
        ]
      }
    },
    {
      "type": "Feature",
      "properties": {
        "norad_id": 30862,
        "name": "FENGYUN 1C DEB",
        "group": "fengyun-1c-debris",
        "lat": 14.210963673500572,
        "lon": 67.82007016394752,
        "alt_km": 787.6194500539932,
        "timestamp": "2025-12-05T16:54:14.926985+00:00",
        "meta_object_name": "FENGYUN 1C DEB",
        "meta_object_id": "1999-025AWY",
        "meta_epoch": "2025-12-05T05:19:17.657760",
        "meta_mean_motion": 14.42799396,
        "meta_eccentricity": 0.00537503,
        "meta_inclination": 98.9598,
        "meta_ra_of_asc_node": 69.6029,
        "meta_arg_of_pericenter": 184.2922,
        "meta_mean_anomaly": 205.0477,
        "meta_ephemeris_type": 0,
        "meta_classification_type": "U",
        "meta_norad_cat_id": 30862,
        "meta_element_set_no": 999,
        "meta_rev_at_epoch": 96611,
        "meta_bstar": 0.0068288017,
        "meta_mean_motion_dot": 0.00023201,
        "meta_mean_motion_ddot": 0,
        "tle_line1": "1 30862U 99025AWY 25339.22173215  .00023201  00000+0  68288-2 0  9990",
        "tle_line2": "2 30862  98.9598  69.6029 0053750 184.2922 205.0477 14.42799396966111"
      },
      "geometry": {
        "type": "Point",
        "coordinates": [
          67.82007016394752,
          14.210963673500572
        ]
      }
    },
    {
      "type": "Feature",
      "properties": {
        "norad_id": 30863,
        "name": "FENGYUN 1C DEB",
        "group": "fengyun-1c-debris",
        "lat": 15.331413986209423,
        "lon": 169.90208934361044,
        "alt_km": 1691.9946191242843,
        "timestamp": "2025-12-05T16:54:14.926994+00:00",
        "meta_object_name": "FENGYUN 1C DEB",
        "meta_object_id": "1999-025AWZ",
        "meta_epoch": "2025-12-01T19:58:05.361600",
        "meta_mean_motion": 12.4043832,
        "meta_eccentricity": 0.08789042,
        "meta_inclination": 99.121,
        "meta_ra_of_asc_node": 169.4702,
        "meta_arg_of_pericenter": 273.3504,
        "meta_mean_anomaly": 88.4954,
        "meta_ephemeris_type": 0,
        "meta_classification_type": "U",
        "meta_norad_cat_id": 30863,
        "meta_element_set_no": 999,
        "meta_rev_at_epoch": 59605,
        "meta_bstar": 0.0034163512,
        "meta_mean_motion_dot": 1.767e-05,
        "meta_mean_motion_ddot": 0,
        "tle_line1": "1 30863U 99025AWZ 25335.83200650  .00001767  00000+0  34164-2 0  9997",
        "tle_line2": "2 30863  99.1210 169.4702 0878904 273.3504  88.4954 12.40438320596053"
      },
      "geometry": {
        "type": "Point",
        "coordinates": [
          169.90208934361044,
          15.331413986209423
        ]
      }
    },
    {
      "type": "Feature",
      "properties": {
        "norad_id": 30867,
        "name": "FENGYUN 1C DEB",
        "group": "fengyun-1c-debris",
        "lat": -60.53510623578346,
        "lon": -98.59172968053839,
        "alt_km": 796.8947826558697,
        "timestamp": "2025-12-05T16:54:14.927003+00:00",
        "meta_object_name": "FENGYUN 1C DEB",
        "meta_object_id": "1999-025AXD",
        "meta_epoch": "2025-12-05T06:07:25.248576",
        "meta_mean_motion": 14.27854335,
        "meta_eccentricity": 0.00546994,
        "meta_inclination": 97.877,
        "meta_ra_of_asc_node": 246.8186,
        "meta_arg_of_pericenter": 16.7513,
        "meta_mean_anomaly": 134.7948,
        "meta_ephemeris_type": 0,
        "meta_classification_type": "U",
        "meta_norad_cat_id": 30867,
        "meta_element_set_no": 999,
        "meta_rev_at_epoch": 96430,
        "meta_bstar": 0.0049377082,
        "meta_mean_motion_dot": 0.00012393,
        "meta_mean_motion_ddot": 0,
        "tle_line1": "1 30867U 99025AXD 25339.25515334  .00012393  00000+0  49377-2 0  9998",
        "tle_line2": "2 30867  97.8770 246.8186 0054699  16.7513 134.7948 14.27854335964305"
      },
      "geometry": {
        "type": "Point",
        "coordinates": [
          -98.59172968053839,
          -60.53510623578346
        ]
      }
    },
    {
      "type": "Feature",
      "properties": {
        "norad_id": 30868,
        "name": "FENGYUN 1C DEB",
        "group": "fengyun-1c-debris",
        "lat": -18.987774726585307,
        "lon": 35.42857476135984,
        "alt_km": 779.5188876727243,
        "timestamp": "2025-12-05T16:54:14.927012+00:00",
        "meta_object_name": "FENGYUN 1C DEB",
        "meta_object_id": "1999-025AXE",
        "meta_epoch": "2025-12-05T03:05:15.756576",
        "meta_mean_motion": 14.11114043,
        "meta_eccentricity": 0.01348835,
        "meta_inclination": 98.2639,
        "meta_ra_of_asc_node": 217.7649,
        "meta_arg_of_pericenter": 234.9925,
        "meta_mean_anomaly": 282.12,
        "meta_ephemeris_type": 0,
        "meta_classification_type": "U",
        "meta_norad_cat_id": 30868,
        "meta_element_set_no": 999,
        "meta_rev_at_epoch": 96603,
        "meta_bstar": 0.00030241589,
        "meta_mean_motion_dot": 5.53e-06,
        "meta_mean_motion_ddot": 0,
        "tle_line1": "1 30868U 99025AXE 25339.12865459  .00000553  00000+0  30242-3 0  9998",
        "tle_line2": "2 30868  98.2639 217.7649 0134883 234.9925 282.1200 14.11114043966030"
      },
      "geometry": {
        "type": "Point",
        "coordinates": [
          35.42857476135984,
          -18.987774726585307
        ]
      }
    }
  ]
}